IRIDIUM 33 DEB          
1 34375U 97051FT  17345.81455059  .00000229  00000-0  10636-3 0  9993
2 34375  86.4324 274.5437 0109227   6.4407  44.6289 14.13316411453904
